ONEWEB-0098             
1 45442U 20020U   24127.83141485 -.00000050  00000+0 -17682-3 0  9996
2 45442  87.8990 174.5073 0002196  98.2669 261.8708 13.11413627201540
ONEWEB-0055             
1 45443U 20020V   24127.89394457  .00000464  00000+0  12733-2 0  9990
2 45443  87.8993 174.4974 0002165  99.8223 260.3149 13.11417594201520
ONEWEB-0029             
1 45445U 20020X   24127.88824208  .00000576  00000+0  15904-2 0  9990
2 45445  87.8993 174.4936 0001831  97.5926 262.5410 13.11417569201565
ONEWEB-0046             
1 45447U 20020Z   24127.63172938 -.00000472  00000+0 -13685-2 0  9992
2 45447  87.8994 174.5416 0001808  89.5206 270.6129 13.11418290201488
ONEWEB-0063             
1 45448U 20020AA  24127.88985523  .00000616  00000+0  17034-2 0  9992
2 45448  87.8992 174.4919 0001971  87.0985 273.0369 13.11418779201601
